OBJECT_NAME,OBJECT_ID,EPOCH,MEAN_MOTION,ECCENTRICITY,INCLINATION,RA_OF_ASC_NODE,ARG_OF_PERICENTER,MEAN_ANOMALY,EPHEMERIS_TYPE,CLASSIFICATION_TYPE,NORAD_CAT_ID,ELEMENT_SET_NO,REV_AT_EPOCH,BSTAR,MEAN_MOTION_DOT,MEAN_MOTION_DDOT
ONEWEB-0054,2020-008AD,2026-07-12T23:14:03.062400,13.10376419,.0001809,87.8831,31.1324,92.2155,267.9180,0,U,45158,999,31140,-.81185E-3,-.271E-5,0
ONEWEB-0056,2020-008AE,2026-07-12T22:32:18.278880,13.10369317,.0002082,87.8819,31.1298,86.7558,273.3807,0,U,45159,999,31155,.4963E-3,.186E-5,0
ONEWEB-0057,2020-008AF,2026-07-12T22:57:07.547904,13.10370702,.000161,87.8819,31.1384,71.8000,288.3302,0,U,45160,999,31172,-.17302E-2,-.591E-5,0
ONEWEB-0058,2020-008AG,2026-07-12T22:38:06.832032,13.10371268,.000205,87.8792,31.1422,105.4881,254.6473,0,U,45161,999,31179,.12525E-3,.56E-6,0
ONEWEB-0059,2020-008AH,2026-07-12T13:22:57.936000,13.10367572,.0001556,87.8814,31.2215,87.7242,272.4064,0,U,45162,999,31164,.11791E-3,.54E-6,0
ONEWEB-0062,2020-008AJ,2026-07-12T23:06:30.265920,13.10372766,.0002018,87.8821,31.1299,95.2414,264.8943,0,U,45163,999,31156,-.17388E-2,-.594E-5,0
ONEWEB-0065,2020-008AK,2026-07-12T23:55:23.958048,13.10376070,.0001844,87.8822,31.1304,76.9049,283.2284,0,U,45164,999,31126,.19254E-2,.685E-5,0
ONEWEB-0066,2020-020A,2026-07-12T22:26:23.359776,13.11422800,.0001689,87.8881,15.9431,93.4043,266.7278,0,U,45424,999,30605,-.25405E-3,-.77E-6,0
ONEWEB-0067,2020-020B,2026-07-12T23:20:44.068992,13.11423312,.0001737,87.8899,15.8620,86.0023,274.1303,0,U,45425,999,30611,.32343E-3,.127E-5,0
ONEWEB-0080,2020-020C,2026-07-12T21:30:27.986400,13.11414731,.0002017,87.8893,15.9504,96.6068,263.5290,0,U,45426,999,30607,.64979E-3,.243E-5,0
ONEWEB-0090,2020-020D,2026-07-12T22:11:57.060672,13.11417971,.0001871,87.8894,15.9487,91.7412,268.3930,0,U,45427,999,30604,-.12683E-2,-.437E-5,0
ONEWEB-0061,2020-020E,2026-07-12T21:08:05.491104,13.11416598,.0001807,87.8885,15.9413,88.5662,271.5673,0,U,45428,999,30599,.16594E-2,.601E-5,0
ONEWEB-0081,2020-020F,2026-07-12T22:31:17.577696,13.11418854,.0001612,87.8888,15.9395,87.9750,272.1562,0,U,45429,999,30611,.60654E-4,.34E-6,0
ONEWEB-0069,2020-020G,2026-07-12T22:33:56.090592,13.11420836,.0001625,87.8888,15.9422,91.3406,268.7908,0,U,45430,999,30604,.35278E-3,.138E-5,0
ONEWEB-0031,2020-020H,2026-07-12T23:25:01.852896,13.11415876,.0001975,87.8875,15.9382,95.6146,264.5208,0,U,45431,999,30603,.7007E-4,.38E-6,0
ONEWEB-0027,2020-020J,2026-07-12T22:15:32.283936,13.17643271,.0002321,87.9147,0.7439,94.1016,266.0381,0,U,45432,999,30974,.10317E-2,.413E-5,0
ONEWEB-0064,2020-020K,2026-07-12T23:22:33.809088,13.11413469,.000205,87.8881,15.9315,94.6140,265.5222,0,U,45433,999,30606,.29438E-3,.117E-5,0
ONEWEB-0018,2020-020L,2026-07-12T22:18:52.291296,13.11418139,.0001585,87.8882,15.9395,100.9594,259.1713,0,U,45434,999,30600,-.87275E-3,-.297E-5,0
ONEWEB-0083,2020-020M,2026-07-12T22:04:37.492032,13.11417354,.0001897,87.8891,15.9371,93.7727,266.3618,0,U,45435,999,30604,-.15301E-2,-.53E-5,0
ONEWEB-0095,2020-020N,2026-07-12T21:52:24.949632,13.11415309,.0002364,87.8884,15.9466,79.2787,280.8607,0,U,45436,999,30604,-.11886E-2,-.409E-5,0
ONEWEB-0092,2020-020P,2026-07-12T22:36:22.947264,13.11416073,.0001686,87.8888,15.9321,95.1852,264.9468,0,U,45437,999,30616,.53561E-3,.203E-5,0
ONEWEB-0085,2020-020Q,2026-07-12T22:04:13.611936,13.11417403,.0001836,87.8881,15.9423,90.2972,269.8366,0,U,45438,999,30604,-.14223E-2,-.491E-5,0
ONEWEB-0096,2020-020R,2026-07-12T22:06:51.736896,13.11417079,.0001935,87.8885,15.9391,87.4259,272.7090,0,U,45439,999,30603,-.13904E-2,-.48E-5,0
ONEWEB-0037,2020-020S,2026-07-12T22:44:42.224352,13.11417255,.0001979,87.8898,15.9067,87.0787,273.0568,0,U,45440,999,30607,.11796E-2,.431E-5,0
ONEWEB-0042,2020-020T,2026-07-12T21:52:01.562880,13.11415778,.0001726,87.8892,15.9383,87.3563,272.7763,0,U,45441,999,30603,-.11899E-2,-.409E-5,0
ONEWEB-0098,2020-020U,2026-07-12T21:46:06.559968,13.11413609,.0001932,87.8889,15.9477,94.2138,265.9210,0,U,45442,999,30601,-.83119E-3,-.282E-5,0
ONEWEB-0055,2020-020V,2026-07-12T13:55:57.249408,13.11415468,.000192,87.8886,16.0114,92.6005,267.5343,0,U,45443,999,30594,.13077E-2,.476E-5,0
ONEWEB-0093,2020-020W,2026-07-12T20:55:17.682816,13.10894465,.0001535,87.8890,15.9493,86.5573,273.5730,0,U,45444,999,30604,.14075E-2,.508E-5,0
ONEWEB-0029,2020-020X,2026-07-12T21:25:35.126688,13.11414245,.0001613,87.8881,15.9497,92.1143,268.0169,0,U,45445,999,30602,.84675E-3,.313E-5,0
ONEWEB-0068,2020-020Y,2026-07-12T22:35:59.305632,13.11418356,.0001645,87.8887,15.9360,90.5752,269.5564,0,U,45446,999,30597,.46689E-3,.178E-5,0
ONEWEB-0046,2020-020Z,2026-07-12T22:23:57.410304,13.11419392,.0001663,87.8879,15.9418,82.3407,277.7909,0,U,45447,999,30598,-.42396E-3,-.138E-5,0
