ONEWEB-0054             
1 45158U 20008AD  26193.96809100 -.00000271  00000+0 -81185-3 0  9994
2 45158  87.8831  31.1324 0001808  92.2155 267.9180 13.10376419311402
ONEWEB-0056             
1 45159U 20008AE  26193.93910046  .00000186  00000+0  49630-3 0  9996
2 45159  87.8819  31.1298 0002081  86.7558 273.3807 13.10369317311550
ONEWEB-0057             
1 45160U 20008AF  26193.95633737 -.00000591  00000+0 -17302-2 0  9991
2 45160  87.8819  31.1384 0001610  71.8000 288.3302 13.10370702311727
ONEWEB-0058             
1 45161U 20008AG  26193.94313464  .00000056  00000+0  12525-3 0  9990
2 45161  87.8792  31.1422 0002049 105.4881 254.6473 13.10371269311790
ONEWEB-0059             
1 45162U 20008AH  26193.55761500  .00000054  00000+0  11791-3 0  9998
2 45162  87.8814  31.2215 0001556  87.7242 272.4064 13.10367572311642
ONEWEB-0062             
1 45163U 20008AJ  26193.96285031 -.00000594  00000+0 -17388-2 0  9992
2 45163  87.8821  31.1299 0002017  95.2414 264.8943 13.10372766311563
ONEWEB-0065             
1 45164U 20008AK  26193.99680507  .00000685  00000+0  19254-2 0  9996
2 45164  87.8822  31.1304 0001844  76.9049 283.2284 13.10376070311261
ONEWEB-0066             
1 45424U 20020A   26193.93499260 -.00000077  00000+0 -25405-3 0  9990
2 45424  87.8881  15.9431 0001688  93.4043 266.7278 13.11422801306055
ONEWEB-0067             
1 45425U 20020B   26193.97273229  .00000127  00000+0  32343-3 0  9993
2 45425  87.8899  15.8620 0001736  86.0023 274.1303 13.11423312306111
ONEWEB-0080             
1 45426U 20020C   26193.89615725  .00000243  00000+0  64979-3 0  9995
2 45426  87.8893  15.9504 0002016  96.6068 263.5290 13.11414731306073
ONEWEB-0090             
1 45427U 20020D   26193.92496599 -.00000437  00000+0 -12683-2 0  9997
2 45427  87.8894  15.9487 0001870  91.7412 268.3930 13.11417971306041
ONEWEB-0061             
1 45428U 20020E   26193.88061912  .00000601  00000+0  16594-2 0  9996
2 45428  87.8885  15.9413 0001807  88.5662 271.5673 13.11416598305999
ONEWEB-0081             
1 45429U 20020F   26193.93839790  .00000034  00000+0  60654-4 0  9998
2 45429  87.8888  15.9395 0001611  87.9750 272.1562 13.11418855306113
ONEWEB-0069             
1 45430U 20020G   26193.94023254  .00000138  00000+0  35278-3 0  9999
2 45430  87.8888  15.9422 0001624  91.3406 268.7908 13.11420836306046
ONEWEB-0031             
1 45431U 20020H   26193.97571590  .00000038  00000+0  70070-4 0  9993
2 45431  87.8875  15.9382 0001975  95.6146 264.5208 13.11415876306039
ONEWEB-0027             
1 45432U 20020J   26193.92745700  .00000413  00000+0  10317-2 0  9998
2 45432  87.9147   0.7439 0002320  94.1016 266.0381 13.17643271309741
ONEWEB-0064             
1 45433U 20020K   26193.97400243  .00000117  00000+0  29438-3 0  9990
2 45433  87.8881  15.9315 0002049  94.6140 265.5222 13.11413469306066
ONEWEB-0018             
1 45434U 20020L   26193.92977189 -.00000297  00000+0 -87275-3 0  9998
2 45434  87.8882  15.9395 0001584 100.9594 259.1713 13.11418139306000
ONEWEB-0083             
1 45435U 20020M   26193.91987838 -.00000530  00000+0 -15301-2 0  9990
2 45435  87.8891  15.9371 0001897  93.7727 266.3618 13.11417354306045
ONEWEB-0095             
1 45436U 20020N   26193.91139989 -.00000409  00000+0 -11886-2 0  9996
2 45436  87.8884  15.9466 0002363  79.2787 280.8607 13.11415309306044
ONEWEB-0092             
1 45437U 20020P   26193.94193226  .00000203  00000+0  53561-3 0  9991
2 45437  87.8888  15.9321 0001686  95.1852 264.9468 13.11416073306166
ONEWEB-0085             
1 45438U 20020Q   26193.91960200 -.00000491  00000+0 -14223-2 0  9995
2 45438  87.8881  15.9423 0001836  90.2972 269.8366 13.11417404306046
ONEWEB-0096             
1 45439U 20020R   26193.92143215 -.00000480  00000+0 -13904-2 0  9999
2 45439  87.8885  15.9391 0001935  87.4259 272.7090 13.11417079306035
ONEWEB-0037             
1 45440U 20020S   26193.94771093  .00000431  00000+0  11796-2 0  9995
2 45440  87.8898  15.9067 0001978  87.0787 273.0568 13.11417255306074
ONEWEB-0042             
1 45441U 20020T   26193.91112921 -.00000409  00000+0 -11899-2 0  9993
2 45441  87.8892  15.9383 0001726  87.3563 272.7763 13.11415778306033
ONEWEB-0098             
1 45442U 20020U   26193.90702038 -.00000282  00000+0 -83119-3 0  9991
2 45442  87.8889  15.9477 0001932  94.2138 265.9210 13.11413609306018
ONEWEB-0055             
1 45443U 20020V   26193.58052372  .00000476  00000+0  13077-2 0  9993
2 45443  87.8886  16.0114 0001920  92.6005 267.5343 13.11415468305949
ONEWEB-0093             
1 45444U 20020W   26193.87173245  .00000508  00000+0  14075-2 0  9994
2 45444  87.8890  15.9493 0001534  86.5573 273.5730 13.10894465306042
ONEWEB-0029             
1 45445U 20020X   26193.89276768  .00000313  00000+0  84675-3 0  9999
2 45445  87.8881  15.9497 0001613  92.1143 268.0169 13.11414245306029
ONEWEB-0068             
1 45446U 20020Y   26193.94165864  .00000178  00000+0  46689-3 0  9992
2 45446  87.8887  15.9360 0001645  90.5752 269.5564 13.11418356305973
ONEWEB-0046             
1 45447U 20020Z   26193.93330336 -.00000138  00000+0 -42396-3 0  9999
2 45447  87.8879  15.9418 0001662  82.3407 277.7909 13.11419392305980
